{
  "type": "FeatureCollection",
  "features": [
    {
      "type": "Feature",
      "properties": {
        "norad_id": 32376,
        "name": "COSMO-SKYMED 2",
        "group": "resource",
        "lat": 28.108165343148976,
        "lon": -14.623486006847623,
        "alt_km": 620.8930058805845,
        "timestamp": "2025-12-05T16:54:14.326414+00:00",
        "meta_object_name": "COSMO-SKYMED 2",
        "meta_object_id": "2007-059A",
        "meta_epoch": "2025-12-05T06:30:04.674816",
        "meta_mean_motion": 14.82152343,
        "meta_eccentricity": 0.00015419,
        "meta_inclination": 97.8806,
        "meta_ra_of_asc_node": 160.707,
        "meta_arg_of_pericenter": 87.2626,
        "meta_mean_anomaly": 272.8764,
        "meta_ephemeris_type": 0,
        "meta_classification_type": "U",
        "meta_norad_cat_id": 32376,
        "meta_element_set_no": 999,
        "meta_rev_at_epoch": 97327,
        "meta_bstar": 0.00017133371,
        "meta_mean_motion_dot": 1.312e-05,
        "meta_mean_motion_ddot": 0,
        "tle_line1": "1 32376U 07059A   25339.27088744  .00001312  00000+0  17133-3 0  9998",
        "tle_line2": "2 32376  97.8806 160.7070 0001541  87.2626 272.8764 14.82152343973271"
      },
      "geometry": {
        "type": "Point",
        "coordinates": [
          -14.623486006847623,
          28.108165343148976
        ]
      }
    },
    {
      "type": "Feature",
      "properties": {
        "norad_id": 32382,
        "name": "RADARSAT-2",
        "group": "resource",
        "lat": -20.260722294277162,
        "lon": -12.408503995909408,
        "alt_km": 797.2076226395593,
        "timestamp": "2025-12-05T16:54:14.326438+00:00",
        "meta_object_name": "RADARSAT-2",
        "meta_object_id": "2007-061A",
        "meta_epoch": "2025-12-05T06:55:25.814208",
        "meta_mean_motion": 14.29984434,
        "meta_eccentricity": 0.00010769,
        "meta_inclination": 98.5799,
        "meta_ra_of_asc_node": 343.987,
        "meta_arg_of_pericenter": 91.2889,
        "meta_mean_anomaly": 268.8416,
        "meta_ephemeris_type": 0,
        "meta_classification_type": "U",
        "meta_norad_cat_id": 32382,
        "meta_element_set_no": 999,
        "meta_rev_at_epoch": 93824,
        "meta_bstar": 7.819266e-05,
        "meta_mean_motion_dot": 1.58e-06,
        "meta_mean_motion_ddot": 0,
        "tle_line1": "1 32382U 07061A   25339.28849322  .00000158  00000+0  78193-4 0  9997",
        "tle_line2": "2 32382  98.5799 343.9870 0001076  91.2889 268.8416 14.29984434938241"
      },
      "geometry": {
        "type": "Point",
        "coordinates": [
          -12.408503995909408,
          -20.260722294277162
        ]
      }
    },
    {
      "type": "Feature",
      "properties": {
        "norad_id": 32783,
        "name": "CARTOSAT-2A",
        "group": "resource",
        "lat": 12.692064528237779,
        "lon": 27.979694362250875,
        "alt_km": 625.5512051762062,
        "timestamp": "2025-12-05T16:54:14.326455+00:00",
        "meta_object_name": "CARTOSAT-2A",
        "meta_object_id": "2008-021A",
        "meta_epoch": "2025-12-05T07:06:12.809376",
        "meta_mean_motion": 14.7891566,
        "meta_eccentricity": 0.00123624,
        "meta_inclination": 97.7942,
        "meta_ra_of_asc_node": 29.3518,
        "meta_arg_of_pericenter": 27.9924,
        "meta_mean_anomaly": 332.195,
        "meta_ephemeris_type": 0,
        "meta_classification_type": "U",
        "meta_norad_cat_id": 32783,
        "meta_element_set_no": 999,
        "meta_rev_at_epoch": 95014,
        "meta_bstar": 0.00023950184,
        "meta_mean_motion_dot": 1.717e-05,
        "meta_mean_motion_ddot": 0,
        "tle_line1": "1 32783U 08021A   25339.29598159  .00001717  00000+0  23950-3 0  9991",
        "tle_line2": "2 32783  97.7942  29.3518 0012362  27.9924 332.1950 14.78915660950147"
      },
      "geometry": {
        "type": "Point",
        "coordinates": [
          27.979694362250875,
          12.692064528237779
        ]
      }
    },
    {
      "type": "Feature",
      "properties": {
        "norad_id": 33320,
        "name": "HUANJING 1A (HJ-1A)",
        "group": "resource",
        "lat": 53.14406084714436,
        "lon": 158.63014842979635,
        "alt_km": 608.7746385907712,
        "timestamp": "2025-12-05T16:54:14.326476+00:00",
        "meta_object_name": "HUANJING 1A (HJ-1A)",
        "meta_object_id": "2008-041A",
        "meta_epoch": "2025-12-05T06:37:32.446272",
        "meta_mean_motion": 14.83357551,
        "meta_eccentricity": 0.00205716,
        "meta_inclination": 97.6531,
        "meta_ra_of_asc_node": 327.8865,
        "meta_arg_of_pericenter": 57.7093,
        "meta_mean_anomaly": 302.6111,
        "meta_ephemeris_type": 0,
        "meta_classification_type": "U",
        "meta_norad_cat_id": 33320,
        "meta_element_set_no": 999,
        "meta_rev_at_epoch": 92965,
        "meta_bstar": 0.00037745191,
        "meta_mean_motion_dot": 3.054e-05,
        "meta_mean_motion_ddot": 0,
        "tle_line1": "1 33320U 08041A   25339.27606998  .00003054  00000+0  37745-3 0  9993",
        "tle_line2": "2 33320  97.6531 327.8865 0020571  57.7093 302.6111 14.83357551929656"
      },
      "geometry": {
        "type": "Point",
        "coordinates": [
          158.63014842979635,
          53.14406084714436
        ]
      }
    },
    {
      "type": "Feature",
      "properties": {
        "norad_id": 33321,
        "name": "HUANJING 1B (HJ-1B)",
        "group": "resource",
        "lat": 0.8448700371761717,
        "lon": -28.10115898361418,
        "alt_km": 626.6246595393477,
        "timestamp": "2025-12-05T16:54:14.326486+00:00",
        "meta_object_name": "HUANJING 1B (HJ-1B)",
        "meta_object_id": "2008-041B",
        "meta_epoch": "2025-12-05T07:10:57.919872",
        "meta_mean_motion": 14.82791299,
        "meta_eccentricity": 0.00382463,
        "meta_inclination": 97.6392,
        "meta_ra_of_asc_node": 331.6252,
        "meta_arg_of_pericenter": 99.3445,
        "meta_mean_anomaly": 261.2097,
        "meta_ephemeris_type": 0,
        "meta_classification_type": "U",
        "meta_norad_cat_id": 33321,
        "meta_element_set_no": 999,
        "meta_rev_at_epoch": 92967,
        "meta_bstar": 0.00030388054,
        "meta_mean_motion_dot": 2.437e-05,
        "meta_mean_motion_ddot": 0,
        "tle_line1": "1 33321U 08041B   25339.29928148  .00002437  00000+0  30388-3 0  9990",
        "tle_line2": "2 33321  97.6392 331.6252 0038246  99.3445 261.2097 14.82791299929671"
      },
      "geometry": {
        "type": "Point",
        "coordinates": [
          -28.10115898361418,
          0.8448700371761717
        ]
      }
    },
    {
      "type": "Feature",
      "properties": {
        "norad_id": 33331,
        "name": "GEOEYE 1",
        "group": "resource",
        "lat": 79.0412083234051,
        "lon": 3.520689697433648,
        "alt_km": 671.8065506525945,
        "timestamp": "2025-12-05T16:54:14.326496+00:00",
        "meta_object_name": "GEOEYE 1",
        "meta_object_id": "2008-042A",
        "meta_epoch": "2025-12-05T06:41:29.699808",
        "meta_mean_motion": 14.64796812,
        "meta_eccentricity": 0.00029059,
        "meta_inclination": 98.1261,
        "meta_ra_of_asc_node": 50.6525,
        "meta_arg_of_pericenter": 309.478,
        "meta_mean_anomaly": 50.6165,
        "meta_ephemeris_type": 0,
        "meta_classification_type": "U",
        "meta_norad_cat_id": 33331,
        "meta_element_set_no": 999,
        "meta_rev_at_epoch": 92176,
        "meta_bstar": 0.00023660081,
        "meta_mean_motion_dot": 1.214e-05,
        "meta_mean_motion_ddot": 0,
        "tle_line1": "1 33331U 08042A   25339.27881597  .00001214  00000+0  23660-3 0  9993",
        "tle_line2": "2 33331  98.1261  50.6525 0002905 309.4780  50.6165 14.64796812921768"
      },
      "geometry": {
        "type": "Point",
        "coordinates": [
          3.520689697433648,
          79.0412083234051
        ]
      }
    },
    {
      "type": "Feature",
      "properties": {
        "norad_id": 33396,
        "name": "THEOS",
        "group": "resource",
        "lat": -10.02893597022813,
        "lon": 39.53264236112922,
        "alt_km": 829.4180777201009,
        "timestamp": "2025-12-05T16:54:14.326506+00:00",
        "meta_object_name": "THEOS",
        "meta_object_id": "2008-049A",
        "meta_epoch": "2025-12-05T06:48:20.586240",
        "meta_mean_motion": 14.20094002,
        "meta_eccentricity": 0.0001101,
        "meta_inclination": 98.5879,
        "meta_ra_of_asc_node": 37.5929,
        "meta_arg_of_pericenter": 99.939,
        "meta_mean_anomaly": 260.1912,
        "meta_ephemeris_type": 0,
        "meta_classification_type": "U",
        "meta_norad_cat_id": 33396,
        "meta_element_set_no": 999,
        "meta_rev_at_epoch": 89044,
        "meta_bstar": 9.6012803e-05,
        "meta_mean_motion_dot": 1.62e-06,
        "meta_mean_motion_ddot": 0,
        "tle_line1": "1 33396U 08049A   25339.28357160  .00000162  00000+0  96013-4 0  9990",
        "tle_line2": "2 33396  98.5879  37.5929 0001101  99.9390 260.1912 14.20094002890447"
      },
      "geometry": {
        "type": "Point",
        "coordinates": [
          39.53264236112922,
          -10.02893597022813
        ]
      }
    }
  ]
}